#dP2023  7  6 18  0  0.00000000      96 __u+U ITR00 EXT  IAC
## 2269 410400.00000000   900.00000000 60131 0.7500000000000
+  117   C06C07C08C09C10C11C12C13C14C19C20C21C22C23C24C25C26
+        C27C28C29C30C32C33C34C35C36C37C38C39C40C41C42C43C44
+        C45C46E02E03E04E05E07E08E09E10E11E12E13E14E15E18E19
+        E21E24E25E26E27E30E31E34E36G01G02G03G04G05G06G07G08
+        G09G10G11G12G13G14G15G16G17G18G19G20G21G22G23G24G25
+        G26G27G28G29G30G31G32J02J03J04R01R02R03R04R05R07R08
+        R09R11R12R13R14R15R16R17R18R19R20R21R22R24R25  0  0
++         0  0  0  0  0  0  0  0  0  0  0  0  0  0  0  0  0
++         0  0  0  0  0  0  0  0  0  0  0  0  0  0  0  0  0
++         0  0  0  0  0  0  0  0  0  0  0  0  0  0  0  0  0
++         0  0  0  0  0  0  0  0  0  0  0  0  0  0  0  0  0
++         0  0  0  0  0  0  0  0  0  0  0  0  0  0  0  0  0
++         0  0  0  0  0  0  0  0  0  0  0  0  0  0  0  0  0
++         0  0  0  0  0  0  0  0  0  0  0  0  0  0  0  0  0
%c M  cc GPS ccc cccc cccc cccc cccc ccccc ccccc ccccc ccccc
%c cc cc ccc ccc cccc cccc cccc cccc ccccc ccccc ccccc ccccc
%f  0.0000000  0.000000000  0.00000000000  0.000000000000000
%f  0.0000000  0.000000000  0.00000000000  0.000000000000000
%i    0    0    0    0      0      0      0      0         0
%i    0    0    0    0      0      0      0      0         0
/* IAC                                ULTRA-RAPID PREDICTION
/* S/V CLOCKS ARE ALIGNED TO GNSS TIME                      
/* G:C1WC2W R:C1PC2P E:C1XC5X C:C2IC6I J:C1CC2S             
/* PCV:IGS20_2247 OL/AL:FES2004  NONE     YN ORB:CoN CLK:CoN
*  2023 07 07  9 30  0.00000000
PC06 -12702.009977  40296.878752   2373.158152   -164.283571
PC07  -1991.499802  30061.109092 -29391.266401   -285.424105
PC08 -16246.047898  23155.948737  31159.844419    436.358964
PC09  -7586.276170  41047.964092  -7361.476695    445.813769
PC10   3706.417714  31634.857105 -27057.858256   -107.328042
PC11   -404.401922  27834.718175   1804.389743    713.293336
PC12 -11162.907887  20364.179617 -15432.574941    769.057099
PC13  -8373.313777  24329.241621  33459.086730    310.815818
PC14   6472.088732  19221.296746  19153.253196    525.805013
PC19 -15713.535187 -19427.236027 -12433.054936   -935.259986
PC20   1766.848950 -16660.820859 -22313.886513    452.853833
PC21 -19703.376907   3492.360408  19475.718090   -931.702178
PC22 -25055.719160 -11212.802661   5113.816471   -407.262801
PC23  21305.877093   2997.888366 -17759.444087   -953.765660
PC24 -14545.404689  19344.661198 -13877.642165    145.732846
PC25   6117.442603  15233.424910 -22570.994533    162.828300
PC26 -24727.930782  12771.772900   1774.123163   -145.294696
PC27  14527.621559 -12537.962550  20234.859368    166.026476
PC28  15244.166977   7228.252467  22227.847569    123.645690
PC29  -7416.977360 -24805.018842 -10426.842464    143.985857
PC30   5273.569816 -26280.742267   7720.969473     -1.961638
PC32  19709.007834  -3593.503728 -19406.767337   -541.306762
PC33  15690.723514  19355.143414  12546.128128   -908.594674
PC34  -4469.842152  26785.634767  -6480.473267    209.426913
PC35 -15509.487549  -7167.783861 -22073.673746    593.408149
PC36  -4933.428680 -15777.504582  22511.887211   -342.528911
PC37  25259.734110 -11561.715362  -2749.513000   -790.837377
PC38 -22969.369456  24840.611453  25064.283736     89.979511
PC39 -14483.366107  38434.888335  10104.372981     -3.699562
PC40  -6269.578629  24786.861137 -33449.586214    -28.618334
PC41  24986.103002  11597.837508  -4373.016197   -907.042414
PC42  -3341.418300  16029.580915  22633.973155   -621.227602
PC43   6885.673672  25280.039131   9615.880909     29.583747
PC44 -14251.529803  12892.962040 -20260.143890    161.111925
PC45 -21554.284068  -2551.319277  17535.880661   -119.524627
PC46  13353.328692 -19409.666723  14988.570914    -67.061360
PE02  12285.228445  15810.451350 -21803.482056     48.349335
PE03  12933.811394  26610.961286    516.543957    -33.644193
PE04 -20073.954777 -14077.956691  16597.522093   -161.267699
PE05  -1894.059210  23738.884750  17582.869266     -2.677103
PE07  15647.127775  -6677.966139 -24214.456181    -58.167189
PE08  19968.932206  14432.572859 -16391.436729   -110.608565
PE09 -15612.187604   6436.265374  24316.437310    -76.095298
PE10 -20217.541557   6797.084738 -20535.497733   -546.707469
PE11 -20889.602606  16598.048464 -12848.213828   2422.434015
PE12 -16654.840032  -3269.975702 -24264.162291   -608.770763
PE13  20894.579250 -16052.954500  13478.407622    -19.317625
PE14   6048.424012 -21125.664474  15961.827708    275.262476
PE15  16392.382530   3592.349922  24379.835948    -35.190448
PE18 -15533.348797  11932.480105 -22335.092341    267.772922
PE19 -11200.003509 -27234.037601  -3006.825582  -2131.509924
PE21   9190.381133 -15557.484706  23447.089362   -539.300065
PE24 -26849.656619   5819.722945 -11007.297485   -196.024863
PE25  -9586.716668  15459.913853 -23341.967120   -607.926428
PE26  12615.003745 -26131.213326  -5864.294862    155.850727
PE27  26501.743030  -6303.607260  11590.724651    -93.127105
PE30  27795.820639   6986.943931  -7421.625032   -315.730452
PE31 -28008.398844  -6572.507836   6979.136463      0.128782
PE34   2409.542460  20843.048054  20861.081461    -54.778658
PE36 -13117.284397  26032.788183   5148.354880    -82.309021
PG01  14076.469814 -22177.164484  -2666.662066    174.140503
PG02  16241.189489 -20352.285055   5302.148768   -578.612340
PG03  10759.933093 -12931.547928 -20662.015442   -242.403064
PG04   3285.801080 -20875.252696 -16005.882348     88.850245
PG05 -24145.572807   5520.802324   9561.734992   -133.956526
PG06 -12922.198510  -6920.109747 -22095.382636    580.047355
PG07   1400.214960 -21452.619160  15741.741549    132.025605
PG08  11313.574434 -10873.374987  21306.732265   -130.989113
PG09  -5574.625736 -24620.493298  -8259.606366   -118.149806
PG10  19925.065321  11201.658166  13968.907488    -44.186093
PG11 -19884.136413   7597.673016 -15849.650189   -265.753840
PG12 -14852.169338  11105.135013 -19259.588990   -397.719753
PG13 -14922.297249   2042.223283  21707.271319    543.905729
PG14 -16933.310111 -13357.189497  15622.940369    114.528202
PG15  -9718.500309  12983.065070  20532.363664     55.740089
PG16  26006.687362    375.645610   6142.342568   -483.545413
PG17 -13744.083832 -21226.855075  -7511.753465    720.411065
PG18     64.660898  19958.877796  17437.767673   -336.309596
PG19 -15878.667971 -15960.804447 -14558.731999    340.588121
PG20 -26396.689319   1670.686751   -556.242527    423.996110
PG21  17152.633642 -18142.469839   8155.578434    152.416870
PG22  16525.493431  12863.970797 -15975.738650    509.162415
PG23   7917.188637  14606.773521  20762.982873     40.653851
PG24 -14709.392400  21644.861599   2541.045038   -249.817028
PG25   -655.130778  15531.699310 -21852.511823    454.582581
PG26  25692.029400   4819.713085  -5764.783708    237.172003
PG27  16533.486153   1936.122938  20537.414660      1.826063
PG28  12366.243189   8887.323767 -21781.551094     83.223069
PG29   2282.519629  24637.580914  -9575.629370   -604.908848
PG30  -7093.227092 -15739.073109  20237.568185   -506.020798
PG31  18686.998733  -2573.968109 -19034.736062   -219.605139
PG32  16216.709015  18859.647931  -9412.313621   -516.108221
PJ02 -32248.365432  14803.512052 -18171.043732     -1.145478
PJ03 -22488.693452  32991.665286  -8655.084567      0.027052
PJ04 -26290.575118  26680.516399  25430.977046     96.426865
PR01   1136.519639  14203.425967  21155.149031     60.909656
PR02  15245.205041  18910.142556   7937.528464    -22.612465
PR03  20318.776031  12196.396279  -9466.030454     81.077537
PR04  13873.019686   -805.823149 -21364.117805    194.090616
PR05    103.663736 -13503.465245 -21623.586081    115.385175
PR07 -20219.001835 -11570.978794  10375.668995     59.635828
PR08 -13789.519538   1212.738750  21477.018595    -71.561209
PR09  -7374.940500  -9266.506569  22621.131466    129.851570
PR11 -23827.036905   8998.905326  -1558.698061    -98.201925
PR12 -11793.679450  13226.465081 -18312.214512     28.840759
PR13   5034.615947   9933.878407 -22956.240161    -36.825125
PR14  21373.769092   -188.263973 -13885.986193     24.903805
PR15  23547.895895  -9355.418885   2923.830299     88.025513
PR16  11982.106247 -13216.957042  18229.292329     16.399853
PR17   9697.068305   4903.490977  23076.295425     -2.362486
PR18  11563.235847 -12639.212791  18889.006910     90.353135
PR19   8810.475327 -23092.647204   6316.705398   -238.953806
PR20   -956.965599 -21259.355697 -14034.654770    -96.126568
PR21  -9927.063591  -3631.945778 -23221.943985    -20.865634
PR22 -12237.916173  13140.997212 -18100.235741     90.947878
PR24   2316.273305  20918.133693  14408.738436    -15.409317
PR25  -9715.734061  -5581.849452 -22916.539989   -728.502284
EOF
